{
  "type": "Feature",
  "properties": {
    "name": "Victoria Embankment \u2014 Cycleway 3",
    "source": "OpenStreetMap",
    "license": "ODbL-1.0",
    "attribution": "\u00a9 OpenStreetMap contributors",
    "osm_way_ids": [
      416112692,
      416815340,
      416815347,
      431794370,
      475978800,
      475978802,
      680571100,
      1068275184,
      1068275185,
      1119973516,
      1230805886
    ],
    "distance_m": 2093
  },
  "geometry": {
    "type": "LineString",
    "coordinates": [
      [
        -0.1239538,
        51.5009331
      ],
      [
        -0.1239487,
        51.500991
      ],
      [
        -0.1239354,
        51.5010783
      ],
      [
        -0.1239189,
        51.5011604
      ],
      [
        -0.1238719,
        51.5014466
      ],
      [
        -0.123821,
        51.5019313
      ],
      [
        -0.1237835,
        51.502091
      ],
      [
        -0.1236098,
        51.5027608
      ],
      [
        -0.1235091,
        51.5031622
      ],
      [
        -0.1234845,
        51.5032571
      ],
      [
        -0.1232609,
        51.5040497
      ],
      [
        -0.1231267,
        51.5044328
      ],
      [
        -0.1231204,
        51.5044501
      ],
      [
        -0.1231132,
        51.5044689
      ],
      [
        -0.1230794,
        51.5046071
      ],
      [
        -0.1230515,
        51.5047075
      ],
      [
        -0.1230103,
        51.5048436
      ],
      [
        -0.1229831,
        51.5049018
      ],
      [
        -0.1229679,
        51.5049455
      ],
      [
        -0.1228891,
        51.5051422
      ],
      [
        -0.1225229,
        51.5060564
      ],
      [
        -0.1224642,
        51.5061729
      ],
      [
        -0.1224177,
        51.5062607
      ],
      [
        -0.1223993,
        51.506285
      ],
      [
        -0.1223765,
        51.5063231
      ],
      [
        -0.1223053,
        51.5064226
      ],
      [
        -0.1222668,
        51.5064837
      ],
      [
        -0.1221439,
        51.5066501
      ],
      [
        -0.1218506,
        51.507017
      ],
      [
        -0.1217788,
        51.5070978
      ],
      [
        -0.1216905,
        51.5071962
      ],
      [
        -0.1216711,
        51.5072202
      ],
      [
        -0.1216515,
        51.5072396
      ],
      [
        -0.1215646,
        51.5073528
      ],
      [
        -0.1213534,
        51.507629
      ],
      [
        -0.1211448,
        51.5078804
      ],
      [
        -0.1210245,
        51.5080293
      ],
      [
        -0.1209034,
        51.5081653
      ],
      [
        -0.1207843,
        51.508285
      ],
      [
        -0.1206084,
        51.5084553
      ],
      [
        -0.1204206,
        51.5086112
      ],
      [
        -0.1202289,
        51.5087514
      ],
      [
        -0.120005,
        51.5088884
      ],
      [
        -0.1198743,
        51.5089676
      ],
      [
        -0.1198515,
        51.5089795
      ],
      [
        -0.1198122,
        51.5090065
      ],
      [
        -0.1196262,
        51.5091148
      ],
      [
        -0.119303,
        51.5093114
      ],
      [
        -0.1190133,
        51.5094567
      ],
      [
        -0.1189426,
        51.509489
      ],
      [
        -0.1189208,
        51.5095005
      ],
      [
        -0.1188919,
        51.5095122
      ],
      [
        -0.1188258,
        51.509543
      ],
      [
        -0.1186488,
        51.5096222
      ],
      [
        -0.1184958,
        51.5096833
      ],
      [
        -0.1182702,
        51.509759
      ],
      [
        -0.1182303,
        51.5097724
      ],
      [
        -0.1177704,
        51.509918
      ],
      [
        -0.117435,
        51.5100214
      ],
      [
        -0.1173602,
        51.5100445
      ],
      [
        -0.1169363,
        51.5101746
      ],
      [
        -0.1165479,
        51.5102858
      ],
      [
        -0.1161123,
        51.5103743
      ],
      [
        -0.1155433,
        51.5104898
      ],
      [
        -0.1154883,
        51.5105006
      ],
      [
        -0.115441,
        51.5105098
      ],
      [
        -0.1152902,
        51.5105413
      ],
      [
        -0.1147001,
        51.5106471
      ],
      [
        -0.1144142,
        51.5106917
      ],
      [
        -0.1141435,
        51.5107289
      ],
      [
        -0.113736,
        51.510783
      ],
      [
        -0.1133729,
        51.5108198
      ],
      [
        -0.1133115,
        51.5108259
      ],
      [
        -0.1132546,
        51.5108331
      ],
      [
        -0.1128633,
        51.5108738
      ],
      [
        -0.1125664,
        51.5109001
      ],
      [
        -0.1123117,
        51.5109199
      ],
      [
        -0.111983,
        51.5109427
      ],
      [
        -0.1116531,
        51.5109529
      ],
      [
        -0.1111756,
        51.5109676
      ],
      [
        -0.110174,
        51.510963
      ],
      [
        -0.1084525,
        51.5109551
      ],
      [
        -0.108327,
        51.5109527
      ],
      [
        -0.1082916,
        51.5109529
      ],
      [
        -0.1082507,
        51.5109524
      ],
      [
        -0.1080078,
        51.5109502
      ],
      [
        -0.1079964,
        51.5109792
      ],
      [
        -0.1079967,
        51.5109914
      ],
      [
        -0.107998,
        51.511049
      ],
      [
        -0.1079997,
        51.5111038
      ],
      [
        -0.108,
        51.511113
      ],
      [
        -0.1079993,
        51.5111232
      ],
      [
        -0.1079567,
        51.5111395
      ],
      [
        -0.1078922,
        51.5111423
      ],
      [
        -0.1076105,
        51.511129
      ],
      [
        -0.1075969,
        51.5111426
      ],
      [
        -0.1075541,
        51.511158
      ],
      [
        -0.1074429,
        51.511158
      ],
      [
        -0.1072602,
        51.5111574
      ],
      [
        -0.1068812,
        51.5111567
      ],
      [
        -0.1062564,
        51.5111506
      ],
      [
        -0.1058771,
        51.5111506
      ],
      [
        -0.1057431,
        51.5111509
      ],
      [
        -0.1055961,
        51.5111654
      ],
      [
        -0.1054914,
        51.5111897
      ],
      [
        -0.1053912,
        51.5112111
      ],
      [
        -0.1052446,
        51.5112533
      ],
      [
        -0.1050218,
        51.5113442
      ],
      [
        -0.1048822,
        51.5114023
      ],
      [
        -0.1048391,
        51.5114208
      ],
      [
        -0.1047741,
        51.5114493
      ],
      [
        -0.1046817,
        51.5114862
      ],
      [
        -0.1046402,
        51.5115008
      ]
    ]
  }
}
