{
  "type": "Feature",
  "properties": {
    "name": "Фрунзенская набережная",
    "source": "OpenStreetMap",
    "license": "ODbL-1.0",
    "attribution": "© OpenStreetMap contributors",
    "osm_way_ids": [
      109443640,
      128942683,
      132410196
    ],
    "distance_m": 1067
  },
  "geometry": {
    "type": "LineString",
    "coordinates": [
      [
        37.5969758,
        55.7340161
      ],
      [
        37.5971408,
        55.7339663
      ],
      [
        37.5972407,
        55.7339361
      ],
      [
        37.5973022,
        55.7339151
      ],
      [
        37.5971138,
        55.7337282
      ],
      [
        37.59683,
        55.7334373
      ],
      [
        37.596445,
        55.7330479
      ],
      [
        37.5961902,
        55.7328057
      ],
      [
        37.5956136,
        55.7322175
      ],
      [
        37.595551,
        55.732155
      ],
      [
        37.5951599,
        55.7317096
      ],
      [
        37.5948411,
        55.7313442
      ],
      [
        37.5944902,
        55.7308963
      ],
      [
        37.5943426,
        55.7308129
      ],
      [
        37.594166,
        55.7305677
      ],
      [
        37.594164,
        55.7304535
      ],
      [
        37.5937588,
        55.7298809
      ],
      [
        37.5929035,
        55.7286351
      ],
      [
        37.5918316,
        55.7270973
      ],
      [
        37.591505,
        55.7266648
      ],
      [
        37.5912105,
        55.7263238
      ],
      [
        37.5909192,
        55.7260197
      ],
      [
        37.5908202,
        55.7259246
      ],
      [
        37.5904459,
        55.725552
      ],
      [
        37.5902543,
        55.7254644
      ]
    ]
  }
}
